[{"OBJECT_NAME":"STARLINK-33774","OBJECT_ID":"2025-087AA","EPOCH":"2026-03-09T17:34:31.162368","MEAN_MOTION":15.30195924,"ECCENTRICITY":0.00010877,"INCLINATION":53.1607,"RA_OF_ASC_NODE":219.5339,"ARG_OF_PERICENTER":77.5134,"MEAN_ANOMALY":282.5988,"EPHEMERIS_TYPE":0,"CLASSIFICATION_TYPE":"U","NORAD_CAT_ID":63721,"ELEMENT_SET_NO":999,"REV_AT_EPOCH":4920,"BSTAR":0.0010231764,"MEAN_MOTION_DOT":0.00030063,"MEAN_MOTION_DDOT":0},{"OBJECT_NAME":"SL-8 R\/B","OBJECT_ID":"1981-003B","EPOCH":"2026-03-09T16:04:15.381408","MEAN_MOTION":15.1097362,"ECCENTRICITY":0.02621852,"INCLINATION":82.9386,"RA_OF_ASC_NODE":290.0424,"ARG_OF_PERICENTER":178.7086,"MEAN_ANOMALY":181.4887,"EPHEMERIS_TYPE":0,"CLASSIFICATION_TYPE":"U","NORAD_CAT_ID":12139,"ELEMENT_SET_NO":999,"REV_AT_EPOCH":31467,"BSTAR":0.00054115758,"MEAN_MOTION_DOT":0.00021105,"MEAN_MOTION_DDOT":0}]
